{"type": "FeatureCollection", "features": [ {"type": "Feature", "properties": {"norad_id": 28649, "name": "IRS-P5 (CARTOSAT-1)", "group": "resource", "lat": 20.734846432213295, "lon": -168.87220131960655, "alt_km": 597.1417684968346, "timestamp": "2025-12-07T14:37:04.865850+00:00", "meta": {"OBJECT_NAME": "IRS-P5 (CARTOSAT-1)", "OBJECT_ID": "2005-017A", "EPOCH": "2025-12-06T23:24:18.821376", "MEAN_MOTION": 14.90376154, "ECCENTRICITY": 0.00016017, "INCLINATION": 97.5494, "RA_OF_ASC_NODE": 7.6443, "ARG_OF_PERICENTER": 50.6438, "MEAN_ANOMALY": 309.4923, "EPHEMERIS_TYPE": 0, "CLASSIFICATION_TYPE": "U", "NORAD_CAT_ID": 28649, "ELEMENT_SET_NO": 999, "REV_AT_EPOCH": 11518, "BSTAR": 0.00032179812, "MEAN_MOTION_DOT": 3.08e-05, "MEAN_MOTION_DDOT": 0}, "tle": {"line1": "1 28649U 05017A   25340.97521784  .00003080  00000+0  32180-3 0  9996", "line2": "2 28649  97.5494   7.6443 0001601  50.6438 309.4923 14.90376154115183"}}, "geometry": {"type": "Point", "coordinates": [-168.87220131960655, 20.734846432213295]}}, {"type": "Feature", "properties": {"norad_id": 28893, "name": "SINAH 1", "group": "resource", "lat": -77.29739010310935, "lon": 150.2788265091343, "alt_km": 694.2073265912659, "timestamp": "2025-12-07T14:37:04.865863+00:00", "meta": {"OBJECT_NAME": "SINAH 1", "OBJECT_ID": "2005-043D", "EPOCH": "2025-12-06T22:34:54.111648", "MEAN_MOTION": 14.63952322, "ECCENTRICITY": 0.00150218, "INCLINATION": 98.2601, "RA_OF_ASC_NODE": 109.4828, "ARG_OF_PERICENTER": 154.3023, "MEAN_ANOMALY": 205.8929, "EPHEMERIS_TYPE": 0, "CLASSIFICATION_TYPE": "U", "NORAD_CAT_ID": 28893, "ELEMENT_SET_NO": 999, "REV_AT_EPOCH": 7239, "BSTAR": 0.00018970479, "MEAN_MOTION_DOT": 9.45e-06, "MEAN_MOTION_DDOT": 0}, "tle": {"line1": "1 28893U 05043D   25340.94090407  .00000945  00000+0  18970-3 0  9994", "line2": "2 28893  98.2601 109.4828 0015021 154.3023 205.8929 14.63952322 72390"}}, "geometry": {"type": "Point", "coordinates": [150.2788265091343, -77.29739010310935]}}, {"type": "Feature", "properties": {"norad_id": 29079, "name": "EROS B", "group": "resource", "lat": -4.588813892090179, "lon": -82.64719849801642, "alt_km": 372.8355025816136, "timestamp": "2025-12-07T14:37:04.865875+00:00", "meta": {"OBJECT_NAME": "EROS B", "OBJECT_ID": "2006-014A", "EPOCH": "2025-12-06T20:57:52.877952", "MEAN_MOTION": 15.66017007, "ECCENTRICITY": 0.00017283, "INCLINATION": 97.3489, "RA_OF_ASC_NODE": 97.1781, "ARG_OF_PERICENTER": 256.2234, "MEAN_ANOMALY": 103.8834, "EPHEMERIS_TYPE": 0, "CLASSIFICATION_TYPE": "U", "NORAD_CAT_ID": 29079, "ELEMENT_SET_NO": 999, "REV_AT_EPOCH": 8988, "BSTAR": 0.0018155702, "MEAN_MOTION_DOT": 0.00189187, "MEAN_MOTION_DDOT": 0}, "tle": {"line1": "1 29079U 06014A   25340.87352868  .00189187  00000+0  18156-2 0  9995", "line2": "2 29079  97.3489  97.1781 0001728 256.2234 103.8834 15.66017007 89887"}}, "geometry": {"type": "Point", "coordinates": [-82.64719849801642, -4.588813892090179]}}, {"type": "Feature", "properties": {"norad_id": 29228, "name": "RESURS-DK 1", "group": "resource", "lat": 23.34550748490656, "lon": 124.17443076238042, "alt_km": 531.6124375890568, "timestamp": "2025-12-07T14:37:04.865886+00:00", "meta": {"OBJECT_NAME": "RESURS-DK 1", "OBJECT_ID": "2006-021A", "EPOCH": "2025-12-06T19:27:22.890240", "MEAN_MOTION": 15.12110904, "ECCENTRICITY": 0.00077341, "INCLINATION": 69.9341, "RA_OF_ASC_NODE": 117.1593, "ARG_OF_PERICENTER": 263.3376, "MEAN_ANOMALY": 96.691, "EPHEMERIS_TYPE": 0, "CLASSIFICATION_TYPE": "U", "NORAD_CAT_ID": 29228, "ELEMENT_SET_NO": 999, "REV_AT_EPOCH": 7348, "BSTAR": 0.00030168792, "MEAN_MOTION_DOT": 5.106e-05, "MEAN_MOTION_DDOT": 0}, "tle": {"line1": "1 29228U 06021A   25340.81068160  .00005106  00000+0  30169-3 0  9999", "line2": "2 29228  69.9341 117.1593 0007734 263.3376  96.6910 15.12110904 73482"}}, "geometry": {"type": "Point", "coordinates": [124.17443076238042, 23.34550748490656]}}, {"type": "Feature", "properties": {"norad_id": 29268, "name": "ARIRANG-2 (KOMPSAT-2)", "group": "resource", "lat": 4.5036147618263325, "lon": -9.04715878544568, "alt_km": 689.6206409731622, "timestamp": "2025-12-07T14:37:04.865898+00:00", "meta": {"OBJECT_NAME": "ARIRANG-2 (KOMPSAT-2)", "OBJECT_ID": "2006-031A", "EPOCH": "2025-12-06T22:02:34.237248", "MEAN_MOTION": 14.64485813, "ECCENTRICITY": 0.00137825, "INCLINATION": 97.8271, "RA_OF_ASC_NODE": 169.6753, "ARG_OF_PERICENTER": 328.4839, "MEAN_ANOMALY": 168.0008, "EPHEMERIS_TYPE": 0, "CLASSIFICATION_TYPE": "U", "NORAD_CAT_ID": 29268, "ELEMENT_SET_NO": 999, "REV_AT_EPOCH": 3333, "BSTAR": 0.00014809661, "MEAN_MOTION_DOT": 7.4e-06, "MEAN_MOTION_DDOT": 0}, "tle": {"line1": "1 29268U 06031A   25340.91845182  .00000740  00000+0  14810-3 0  9996", "line2": "2 29268  97.8271 169.6753 0013782 328.4839 168.0008 14.64485813 33337"}}, "geometry": {"type": "Point", "coordinates": [-9.04715878544568, 4.5036147618263325]}}, {"type": "Feature", "properties": {"norad_id": 29709, "name": "LAPAN-TUBSAT", "group": "resource", "lat": 76.56465042687742, "lon": -65.06988532462039, "alt_km": 594.8994390691241, "timestamp": "2025-12-07T14:37:04.865909+00:00", "meta": {"OBJECT_NAME": "LAPAN-TUBSAT", "OBJECT_ID": "2007-001A", "EPOCH": "2025-12-06T22:05:55.820544", "MEAN_MOTION": 14.85657024, "ECCENTRICITY": 0.00136364, "INCLINATION": 98.1251, "RA_OF_ASC_NODE": 330.9578, "ARG_OF_PERICENTER": 91.5085, "MEAN_ANOMALY": 268.7691, "EPHEMERIS_TYPE": 0, "CLASSIFICATION_TYPE": "U", "NORAD_CAT_ID": 29709, "ELEMENT_SET_NO": 999, "REV_AT_EPOCH": 2260, "BSTAR": 0.00014554118, "MEAN_MOTION_DOT": 1.206e-05, "MEAN_MOTION_DDOT": 0}, "tle": {"line1": "1 29709U 07001A   25340.92078496  .00001206  00000+0  14554-3 0  9994", "line2": "2 29709  98.1251 330.9578 0013636  91.5085 268.7691 14.85657024 22608"}}, "geometry": {"type": "Point", "coordinates": [-65.06988532462039, 76.56465042687742]}}, {"type": "Feature", "properties": {"norad_id": 31113, "name": "HAIYANG-1B", "group": "resource", "lat": -71.45174534177848, "lon": 120.2056196658694, "alt_km": 805.4729884989556, "timestamp": "2025-12-07T14:37:04.865919+00:00", "meta": {"OBJECT_NAME": "HAIYANG-1B", "OBJECT_ID": "2007-010A", "EPOCH": "2025-12-06T22:20:04.396416", "MEAN_MOTION": 14.30962026, "ECCENTRICITY": 0.00144887, "INCLINATION": 98.3308, "RA_OF_ASC_NODE": 325.4489, "ARG_OF_PERICENTER": 54.0992, "MEAN_ANOMALY": 306.1534, "EPHEMERIS_TYPE": 0, "CLASSIFICATION_TYPE": "U", "NORAD_CAT_ID": 31113, "ELEMENT_SET_NO": 999, "REV_AT_EPOCH": 97313, "BSTAR": 0.00010616924, "MEAN_MOTION_DOT": 2.38e-06, "MEAN_MOTION_DDOT": 0}, "tle": {"line1": "1 31113U 07010A   25340.93060644  .00000238  00000+0  10617-3 0  9993", "line2": "2 31113  98.3308 325.4489 0014488  54.0992 306.1534 14.30962026973139"}}, "geometry": {"type": "Point", "coordinates": [120.2056196658694, -71.45174534177848]}}, {"type": "Feature", "properties": {"norad_id": 31598, "name": "COSMO-SKYMED 1", "group": "resource", "lat": -29.57376001131212, "lon": -17.534894021366938, "alt_km": 586.6838038934739, "timestamp": "2025-12-07T14:37:04.865930+00:00", "meta": {"OBJECT_NAME": "COSMO-SKYMED 1", "OBJECT_ID": "2007-023A", "EPOCH": "2025-12-06T23:13:58.048608", "MEAN_MOTION": 14.95700421, "ECCENTRICITY": 0.0001129, "INCLINATION": 97.8834, "RA_OF_ASC_NODE": 166.33, "ARG_OF_PERICENTER": 78.5383, "MEAN_ANOMALY": 281.5964, "EPHEMERIS_TYPE": 0, "CLASSIFICATION_TYPE": "U", "NORAD_CAT_ID": 31598, "ELEMENT_SET_NO": 999, "REV_AT_EPOCH": 104, "BSTAR": 0.00051668636, "MEAN_MOTION_DOT": 5.694e-05, "MEAN_MOTION_DDOT": 0}, "tle": {"line1": "1 31598U 07023A   25340.96803297  .00005694  00000+0  51669-3 0  9999", "line2": "2 31598  97.8834 166.3300 0001129  78.5383 281.5964 14.95700421  1046"}}, "geometry": {"type": "Point", "coordinates": [-17.534894021366938, -29.57376001131212]}}, {"type": "Feature", "properties": {"norad_id": 31698, "name": "TERRASAR-X", "group": "resource", "lat": 25.707200263660855, "lon": 170.67381807964622, "alt_km": 507.3048678125497, "timestamp": "2025-12-07T14:37:04.865941+00:00", "meta": {"OBJECT_NAME": "TERRASAR-X", "OBJECT_ID": "2007-026A", "EPOCH": "2025-12-06T14:13:48.566208", "MEAN_MOTION": 15.19149934, "ECCENTRICITY": 0.00017836, "INCLINATION": 97.4444, "RA_OF_ASC_NODE": 346.0634, "ARG_OF_PERICENTER": 82.9925, "MEAN_ANOMALY": 277.1512, "EPHEMERIS_TYPE": 0, "CLASSIFICATION_TYPE": "U", "NORAD_CAT_ID": 31698, "ELEMENT_SET_NO": 999, "REV_AT_EPOCH": 2398, "BSTAR": 0.00013540591, "MEAN_MOTION_DOT": 2.777e-05, "MEAN_MOTION_DDOT": 0}, "tle": {"line1": "1 31698U 07026A   25340.59292322  .00002777  00000+0  13541-3 0  9999", "line2": "2 31698  97.4444 346.0634 0001783  82.9925 277.1512 15.19149934 23984"}}, "geometry": {"type": "Point", "coordinates": [170.67381807964622, 25.707200263660855]}}, {"type": "Feature", "properties": {"norad_id": 32060, "name": "WORLDVIEW-1 (WV-1)", "group": "resource", "lat": 53.61816885275037, "lon": 89.02462253730923, "alt_km": 486.74843346792477, "timestamp": "2025-12-07T14:37:04.865952+00:00", "meta": {"OBJECT_NAME": "WORLDVIEW-1 (WV-1)", "OBJECT_ID": "2007-041A", "EPOCH": "2025-12-06T21:03:11.227392", "MEAN_MOTION": 15.24543159, "ECCENTRICITY": 7.066e-05, "INCLINATION": 97.3846, "RA_OF_ASC_NODE": 98.4419, "ARG_OF_PERICENTER": 100.8, "MEAN_ANOMALY": 259.3317, "EPHEMERIS_TYPE": 0, "CLASSIFICATION_TYPE": "U", "NORAD_CAT_ID": 32060, "ELEMENT_SET_NO": 999, "REV_AT_EPOCH": 1358, "BSTAR": 0.00053350668, "MEAN_MOTION_DOT": 0.00013073, "MEAN_MOTION_DDOT": 0}, "tle": {"line1": "1 32060U 07041A   25340.87721328  .00013073  00000+0  53351-3 0  9998", "line2": "2 32060  97.3846  98.4419 0000706 100.8000 259.3317 15.24543159 13583"}}, "geometry": {"type": "Point", "coordinates": [89.02462253730923, 53.61816885275037]}}]}